{"type": "FeatureCollection", "features": [ {"type": "Feature", "properties": {"norad_id": 32384, "name": "GPS BIIRM-5 (PRN 29)", "group": "gps-ops", "lat": 50.38773846302722, "lon": 44.23251078725088, "alt_km": 20121.94654222814, "timestamp": "2025-12-19T16:54:44.519855+00:00", "meta": {"OBJECT_NAME": "GPS BIIRM-5 (PRN 29)", "OBJECT_ID": "2007-062A", "EPOCH": "2025-12-19T04:08:10.010976", "MEAN_MOTION": 2.00577702, "ECCENTRICITY": 0.00322663, "INCLINATION": 55.1765, "RA_OF_ASC_NODE": 281.388, "ARG_OF_PERICENTER": 162.2119, "MEAN_ANOMALY": 283.9132, "EPHEMERIS_TYPE": 0, "CLASSIFICATION_TYPE": "U", "NORAD_CAT_ID": 32384, "ELEMENT_SET_NO": 999, "REV_AT_EPOCH": 13190, "BSTAR": 0, "MEAN_MOTION_DOT": -3.8e-07, "MEAN_MOTION_DDOT": 0}, "tle": {"line1": "1 32384U 07062A   25353.17233809 -.00000038  00000+0  00000+0 0  9996", "line2": "2 32384  55.1765 281.3880 0032266 162.2119 283.9132  2.00577702131904"}}, "geometry": {"type": "Point", "coordinates": [44.23251078725088, 50.38773846302722]}}, {"type": "Feature", "properties": {"norad_id": 32711, "name": "GPS BIIRM-6 (PRN 07)", "group": "gps-ops", "lat": 28.411068706124738, "lon": 179.8270373914435, "alt_km": 20645.393927426958, "timestamp": "2025-12-19T16:54:44.519867+00:00", "meta": {"OBJECT_NAME": "GPS BIIRM-6 (PRN 07)", "OBJECT_ID": "2008-012A", "EPOCH": "2025-12-18T15:45:34.322400", "MEAN_MOTION": 2.00565916, "ECCENTRICITY": 0.02026894, "INCLINATION": 54.4778, "RA_OF_ASC_NODE": 157.1367, "ARG_OF_PERICENTER": 245.0129, "MEAN_ANOMALY": 112.867, "EPHEMERIS_TYPE": 0, "CLASSIFICATION_TYPE": "U", "NORAD_CAT_ID": 32711, "ELEMENT_SET_NO": 999, "REV_AT_EPOCH": 13013, "BSTAR": 0, "MEAN_MOTION_DOT": 7e-07, "MEAN_MOTION_DDOT": 0}, "tle": {"line1": "1 32711U 08012A   25352.65664725  .00000070  00000+0  00000+0 0  9998", "line2": "2 32711  54.4778 157.1367 0202689 245.0129 112.8670  2.00565916130138"}}, "geometry": {"type": "Point", "coordinates": [179.8270373914435, 28.411068706124738]}}, {"type": "Feature", "properties": {"norad_id": 35752, "name": "GPS BIIRM-8 (PRN 05)", "group": "gps-ops", "lat": 42.329073803117815, "lon": 72.27687509494193, "alt_km": 20054.84680719604, "timestamp": "2025-12-19T16:54:44.519878+00:00", "meta": {"OBJECT_NAME": "GPS BIIRM-8 (PRN 05)", "OBJECT_ID": "2009-043A", "EPOCH": "2025-12-18T04:21:14.473728", "MEAN_MOTION": 2.00565462, "ECCENTRICITY": 0.00516833, "INCLINATION": 56.0947, "RA_OF_ASC_NODE": 34.5684, "ARG_OF_PERICENTER": 81.8123, "MEAN_ANOMALY": 312.8651, "EPHEMERIS_TYPE": 0, "CLASSIFICATION_TYPE": "U", "NORAD_CAT_ID": 35752, "ELEMENT_SET_NO": 999, "REV_AT_EPOCH": 11973, "BSTAR": 0, "MEAN_MOTION_DOT": -7.2e-07, "MEAN_MOTION_DDOT": 0}, "tle": {"line1": "1 35752U 09043A   25352.18141752 -.00000072  00000+0  00000+0 0  9992", "line2": "2 35752  56.0947  34.5684 0051683  81.8123 312.8651  2.00565462119738"}}, "geometry": {"type": "Point", "coordinates": [72.27687509494193, 42.329073803117815]}}, {"type": "Feature", "properties": {"norad_id": 36585, "name": "GPS BIIF-1  (PRN 25)", "group": "gps-ops", "lat": 4.84473530394591, "lon": 32.31301168606856, "alt_km": 20287.55384586994, "timestamp": "2025-12-19T16:54:44.519889+00:00", "meta": {"OBJECT_NAME": "GPS BIIF-1  (PRN 25)", "OBJECT_ID": "2010-022A", "EPOCH": "2025-12-18T07:00:57.218688", "MEAN_MOTION": 2.00553566, "ECCENTRICITY": 0.01263334, "INCLINATION": 54.2992, "RA_OF_ASC_NODE": 215.8499, "ARG_OF_PERICENTER": 65.1411, "MEAN_ANOMALY": 167.812, "EPHEMERIS_TYPE": 0, "CLASSIFICATION_TYPE": "U", "NORAD_CAT_ID": 36585, "ELEMENT_SET_NO": 999, "REV_AT_EPOCH": 11396, "BSTAR": 0, "MEAN_MOTION_DOT": 8.3e-07, "MEAN_MOTION_DDOT": 0}, "tle": {"line1": "1 36585U 10022A   25352.29232892  .00000083  00000+0  00000+0 0  9995", "line2": "2 36585  54.2992 215.8499 0126333  65.1411 167.8120  2.00553566113961"}}, "geometry": {"type": "Point", "coordinates": [32.31301168606856, 4.84473530394591]}}, {"type": "Feature", "properties": {"norad_id": 38833, "name": "GPS BIIF-3  (PRN 24)", "group": "gps-ops", "lat": -53.53211092782705, "lon": 60.31638126394089, "alt_km": 20607.914855043513, "timestamp": "2025-12-19T16:54:44.519901+00:00", "meta": {"OBJECT_NAME": "GPS BIIF-3  (PRN 24)", "OBJECT_ID": "2012-053A", "EPOCH": "2025-12-18T20:00:59.061024", "MEAN_MOTION": 2.0056508, "ECCENTRICITY": 0.01760017, "INCLINATION": 53.559, "RA_OF_ASC_NODE": 150.9891, "ARG_OF_PERICENTER": 64.0868, "MEAN_ANOMALY": 297.7017, "EPHEMERIS_TYPE": 0, "CLASSIFICATION_TYPE": "U", "NORAD_CAT_ID": 38833, "ELEMENT_SET_NO": 999, "REV_AT_EPOCH": 9582, "BSTAR": 0, "MEAN_MOTION_DOT": 5.8e-07, "MEAN_MOTION_DDOT": 0}, "tle": {"line1": "1 38833U 12053A   25352.83401691  .00000058  00000+0  00000+0 0  9996", "line2": "2 38833  53.5590 150.9891 0176001  64.0868 297.7017  2.00565080 95827"}}, "geometry": {"type": "Point", "coordinates": [60.31638126394089, -53.53211092782705]}}, {"type": "Feature", "properties": {"norad_id": 39166, "name": "GPS BIIF-4  (PRN 27)", "group": "gps-ops", "lat": 5.657903340197975, "lon": -79.70088626034915, "alt_km": 19905.485366743644, "timestamp": "2025-12-19T16:54:44.519913+00:00", "meta": {"OBJECT_NAME": "GPS BIIF-4  (PRN 27)", "OBJECT_ID": "2013-023A", "EPOCH": "2025-12-19T04:43:12.891072", "MEAN_MOTION": 2.0056472, "ECCENTRICITY": 0.01383011, "INCLINATION": 54.6464, "RA_OF_ASC_NODE": 276.3057, "ARG_OF_PERICENTER": 48.6899, "MEAN_ANOMALY": 312.5197, "EPHEMERIS_TYPE": 0, "CLASSIFICATION_TYPE": "U", "NORAD_CAT_ID": 39166, "ELEMENT_SET_NO": 999, "REV_AT_EPOCH": 9227, "BSTAR": 0, "MEAN_MOTION_DOT": -2.9e-07, "MEAN_MOTION_DDOT": 0}, "tle": {"line1": "1 39166U 13023A   25353.19667698 -.00000029  00000+0  00000+0 0  9994", "line2": "2 39166  54.6464 276.3057 0138301  48.6899 312.5197  2.00564720 92270"}}, "geometry": {"type": "Point", "coordinates": [-79.70088626034915, 5.657903340197975]}}, {"type": "Feature", "properties": {"norad_id": 39533, "name": "GPS BIIF-5  (PRN 30)", "group": "gps-ops", "lat": 9.096844716359445, "lon": 163.40864031642832, "alt_km": 20351.5877960035, "timestamp": "2025-12-19T16:54:44.519925+00:00", "meta": {"OBJECT_NAME": "GPS BIIF-5  (PRN 30)", "OBJECT_ID": "2014-008A", "EPOCH": "2025-12-17T04:42:21.782016", "MEAN_MOTION": 2.00574699, "ECCENTRICITY": 0.00793343, "INCLINATION": 53.632, "RA_OF_ASC_NODE": 156.7429, "ARG_OF_PERICENTER": 226.5757, "MEAN_ANOMALY": 132.7662, "EPHEMERIS_TYPE": 0, "CLASSIFICATION_TYPE": "U", "NORAD_CAT_ID": 39533, "ELEMENT_SET_NO": 999, "REV_AT_EPOCH": 8603, "BSTAR": 0, "MEAN_MOTION_DOT": 7.8e-07, "MEAN_MOTION_DDOT": 0}, "tle": {"line1": "1 39533U 14008A   25351.19608544  .00000078  00000+0  00000+0 0  9992", "line2": "2 39533  53.6320 156.7429 0079334 226.5757 132.7662  2.00574699 86034"}}, "geometry": {"type": "Point", "coordinates": [163.40864031642832, 9.096844716359445]}}, {"type": "Feature", "properties": {"norad_id": 39741, "name": "GPS BIIF-6  (PRN 06)", "group": "gps-ops", "lat": 11.624513597454037, "lon": 150.68766302157155, "alt_km": 20274.249714174493, "timestamp": "2025-12-19T16:54:44.519937+00:00", "meta": {"OBJECT_NAME": "GPS BIIF-6  (PRN 06)", "OBJECT_ID": "2014-026A", "EPOCH": "2025-12-18T23:24:45.525888", "MEAN_MOTION": 2.00561009, "ECCENTRICITY": 0.00393411, "INCLINATION": 56.5812, "RA_OF_ASC_NODE": 338.5339, "ARG_OF_PERICENTER": 319.0443, "MEAN_ANOMALY": 40.6665, "EPHEMERIS_TYPE": 0, "CLASSIFICATION_TYPE": "U", "NORAD_CAT_ID": 39741, "ELEMENT_SET_NO": 999, "REV_AT_EPOCH": 8492, "BSTAR": 0, "MEAN_MOTION_DOT": -8.1e-07, "MEAN_MOTION_DDOT": 0}, "tle": {"line1": "1 39741U 14026A   25352.97552692 -.00000081  00000+0  00000+0 0  9997", "line2": "2 39741  56.5812 338.5339 0039341 319.0443  40.6665  2.00561009 84924"}}, "geometry": {"type": "Point", "coordinates": [150.68766302157155, 11.624513597454037]}}, {"type": "Feature", "properties": {"norad_id": 40105, "name": "GPS BIIF-7  (PRN 09)", "group": "gps-ops", "lat": 52.91870291895688, "lon": -150.98006324948028, "alt_km": 20092.253130093814, "timestamp": "2025-12-19T16:54:44.519949+00:00", "meta": {"OBJECT_NAME": "GPS BIIF-7  (PRN 09)", "OBJECT_ID": "2014-045A", "EPOCH": "2025-12-18T01:34:21.644256", "MEAN_MOTION": 2.00572958, "ECCENTRICITY": 0.00325491, "INCLINATION": 55.2322, "RA_OF_ASC_NODE": 95.6864, "ARG_OF_PERICENTER": 120.0469, "MEAN_ANOMALY": 240.2601, "EPHEMERIS_TYPE": 0, "CLASSIFICATION_TYPE": "U", "NORAD_CAT_ID": 40105, "ELEMENT_SET_NO": 999, "REV_AT_EPOCH": 8244, "BSTAR": 0, "MEAN_MOTION_DOT": -3.8e-07, "MEAN_MOTION_DDOT": 0}, "tle": {"line1": "1 40105U 14045A   25352.06552829 -.00000038  00000+0  00000+0 0  9998", "line2": "2 40105  55.2322  95.6864 0032549 120.0469 240.2601  2.00572958 82445"}}, "geometry": {"type": "Point", "coordinates": [-150.98006324948028, 52.91870291895688]}}, {"type": "Feature", "properties": {"norad_id": 40294, "name": "GPS BIIF-8  (PRN 03)", "group": "gps-ops", "lat": -10.716745245715137, "lon": -135.00585247863154, "alt_km": 20273.012405165275, "timestamp": "2025-12-19T16:54:44.519960+00:00", "meta": {"OBJECT_NAME": "GPS BIIF-8  (PRN 03)", "OBJECT_ID": "2014-068A", "EPOCH": "2025-12-18T10:36:49.514400", "MEAN_MOTION": 2.0056529, "ECCENTRICITY": 0.00608014, "INCLINATION": 56.862, "RA_OF_ASC_NODE": 37.9254, "ARG_OF_PERICENTER": 69.0723, "MEAN_ANOMALY": 291.6423, "EPHEMERIS_TYPE": 0, "CLASSIFICATION_TYPE": "U", "NORAD_CAT_ID": 40294, "ELEMENT_SET_NO": 999, "REV_AT_EPOCH": 8158, "BSTAR": 0, "MEAN_MOTION_DOT": -6.7e-07, "MEAN_MOTION_DDOT": 0}, "tle": {"line1": "1 40294U 14068A   25352.44223975 -.00000067  00000+0  00000+0 0  9993", "line2": "2 40294  56.8620  37.9254 0060801  69.0723 291.6423  2.00565290 81588"}}, "geometry": {"type": "Point", "coordinates": [-135.00585247863154, -10.716745245715137]}}]}